NORAD_CAT_ID,OBJECT_NAME,OBJECT_TYPE,EPOCH,MEAN_MOTION,ECCENTRICITY,INCLINATION,RA_OF_ASC_NODE,ARG_OF_PERICENTER,MEAN_ANOMALY,BSTAR,MEAN_MOTION_DOT,MEAN_MOTION_DDOT,TLE_LINE0,TLE_LINE1,TLE_LINE2,SEMIMAJOR_AXIS,PERIOD,APOGEE,PERIGEE,DECAYED
53029.0,STARLINK-4143,PAYLOAD,2022-12-06 11:46:24,15.08843761,0.0001536,53.2176,12.6403,50.7086,309.4042,4.8478e-05,4.84e-06,0.0,0 STARLINK-4143,1 53029U 22076AV  22340.49055917  .00000484  00000-0  48478-4 0  9998,2 53029  53.2176  12.6403 0001536  50.7086 309.4042 15.08843761 24069,6917.869000000002,95.437,540.7959999999998,538.6709999999998,0.0
53029.0,STARLINK-4143,PAYLOAD,2022-12-07 08:26:28,15.08796404,0.0001317,53.2196,8.7761,32.5191,327.5882,-0.00027742,-4.695e-05,0.0,0 STARLINK-4143,1 53029U 22076AV  22341.35172265 -.00004695  00000-0 -27742-3 0  9990,2 53029  53.2196   8.7761 0001317  32.5191 327.5882 15.08796404 24194,6918.014,95.44,540.79,538.9680000000002,0.0
53029.0,STARLINK-4143,PAYLOAD,2022-12-07 19:34:12,15.08783931,0.0001818,53.2186,6.6965,298.7701,61.3109,-0.0010585,-0.00017069,0.0,0 STARLINK-4143,1 53029U 22076AV  22341.81542562 -.00017069  00000-0 -10585-2 0  9997,2 53029  53.2186   6.6965 0001818 298.7701  61.3109 15.08783931 24269,6918.052,95.441,541.174,538.659,0.0
53029.0,STARLINK-4143,PAYLOAD,2022-12-08 01:55:36,15.08931327,0.0001712,53.2178,5.5062,351.5556,8.5407,0.00087042,0.00013626,0.0,0 STARLINK-4143,1 53029U 22076AV  22342.08028431  .00013626  00000-0  87042-3 0  9997,2 53029  53.2178   5.5062 0001712 351.5556   8.5407 15.08931327 24308,6917.601,95.432,540.651,538.2819999999998,0.0
53029.0,STARLINK-4143,PAYLOAD,2022-12-08 13:03:22,15.08842581,0.0001869,53.2178,3.4245,41.0832,319.0301,-0.00027473,-4.658e-05,0.0,0 STARLINK-4143,1 53029U 22076AV  22342.54400494 -.00004658  00000-0 -27473-3 0  9990,2 53029  53.2178   3.4245 0001869  41.0832 319.0301 15.08842581 23900,6917.871999999999,95.437,541.03,538.445,0.0
53029.0,STARLINK-4143,PAYLOAD,2022-12-08 14:38:44,15.08853417,0.0001573,53.2179,3.1271,47.6895,312.4231,-8.8879e-05,-1.703e-05,0.0,0 STARLINK-4143,1 53029U 22076AV  22342.61023873 -.00001703  00000-0 -88879-4 0  9996,2 53029  53.2179   3.1271 0001573  47.6895 312.4231 15.08853417 24382,6917.839,95.437,540.793,538.616,0.0
53029.0,STARLINK-4143,PAYLOAD,2022-12-09 11:18:45,15.08841734,0.0001691,53.2168,359.2622,47.7846,312.3289,-9.2206e-05,-1.755e-05,0.0,0 STARLINK-4143,1 53029U 22076AV  22343.47136259 -.00001755  00000-0 -92206-4 0  9990,2 53029  53.2168 359.2622 0001691  47.7846 312.3289 15.08841734 24047,6917.875,95.437,540.91,538.57,0.0
53029.0,STARLINK-4143,PAYLOAD,2022-12-09 17:40:10,15.09013738,0.0002837,53.2171,358.0731,269.444,90.6227,0.002401,0.00038316,0.0,0 STARLINK-4143,1 53029U 22076AV  22343.73622789  .00038316  00000-0  24010-2 0  9994,2 53029  53.2171 358.0731 0002837 269.4440  90.6227 15.09013738 24555,6917.349,95.427,541.177,537.252,0.0
53029.0,STARLINK-4143,PAYLOAD,2022-12-10 06:23:25,15.0881766,6.18e-05,53.2173,355.6928,35.5826,324.5208,0.00030942,4.637e-05,0.0,0 STARLINK-4143,1 53029U 22076AV  22344.26626175  .00004637  00000-0  30942-3 0  9997,2 53029  53.2173 355.6928 0000618  35.5826 324.5208 15.08817660 24635,6917.949000000001,95.439,540.241,539.386,0.0
53029.0,STARLINK-4143,PAYLOAD,2022-12-10 12:44:57,15.08828998,0.0001736,53.217,354.5021,46.6137,313.5,-0.00013369,-2.414e-05,0.0,0 STARLINK-4143,1 53029U 22076AV  22344.53121901 -.00002414  00000-0 -13369-3 0  9991,2 53029  53.2170 354.5021 0001736  46.6137 313.5000 15.08828998 24201,6917.9140000000025,95.438,540.98,538.578,0.0
53029.0,STARLINK-4143,PAYLOAD,2022-12-11 04:38:48,15.08832187,0.0001754,53.2175,351.529,41.8164,318.2962,0.00011996,1.621e-05,0.0,0 STARLINK-4143,1 53029U 22076AV  22345.19362017  .00001621  00000-0  11996-3 0  9990,2 53029  53.2175 351.5290 0001754  41.8164 318.2962 15.08832187 24774,6917.904,95.438,540.9830000000002,538.556,0.0
53029.0,STARLINK-4143,PAYLOAD,2022-12-11 11:00:21,15.08832279,0.0001613,53.2174,350.3395,58.6943,301.4207,0.00011425,1.53e-05,0.0,0 STARLINK-4143,1 53029U 22076AV  22345.45858200  .00001530  00000-0  11425-3 0  9999,2 53029  53.2174 350.3395 0001613  58.6943 301.4207 15.08832279 24342,6917.904,95.438,540.885,538.653,0.0
53029.0,STARLINK-4143,PAYLOAD,2022-12-12 09:15:45,15.08838336,0.0001436,53.2169,346.1737,63.337,296.7769,0.00022199,3.247e-05,0.0,0 STARLINK-4143,1 53029U 22076AV  22346.38594121  .00003247  00000-0  22199-3 0  9998,2 53029  53.2169 346.1737 0001436  63.3370 296.7769 15.08838336 24955,6917.885,95.438,540.744,538.757,0.0
53029.0,STARLINK-4143,PAYLOAD,2022-12-13 07:31:08,15.0885035,0.0001671,53.2165,342.0103,53.8022,306.3125,7.711e-05,9.4e-06,0.0,0 STARLINK-4143,1 53029U 22076AV  22347.31329370  .00000940  00000-0  77110-4 0  9995,2 53029  53.2165 342.0103 0001671  53.8022 306.3125 15.08850350 25092,6917.849,95.437,540.87,538.558,0.0
53029.0,STARLINK-4143,PAYLOAD,2022-12-13 12:17:18,15.08844112,0.0001541,53.2167,341.1189,56.9721,303.1419,-6.9867e-06,-3.99e-06,0.0,0 STARLINK-4143,1 53029U 22076AV  22347.51201616 -.00000399  00000-0 -69867-5 0  9990,2 53029  53.2167 341.1189 0001541  56.9721 303.1419 15.08844112 24655,6917.868,95.437,540.799,538.6669999999998,0.0
53029.0,STARLINK-4143,PAYLOAD,2022-12-14 08:57:19,15.08838564,0.0001584,53.2163,337.2533,43.7954,316.3163,-9.4195e-05,-1.787e-05,0.0,0 STARLINK-4143,1 53029U 22076AV  22348.37313909 -.00001787  00000-0 -94195-4 0  9997,2 53029  53.2163 337.2533 0001584  43.7954 316.3163 15.08838564 25252,6917.885,95.438,540.846,538.654,0.0
53029.0,STARLINK-4143,PAYLOAD,2022-12-14 16:54:15,15.08831119,0.0001617,53.2169,335.7666,54.4043,305.7099,-4.0074e-05,-9.26e-06,0.0,0 STARLINK-4143,1 53029U 22076AV  22348.70434945 -.00000926  00000-0 -40074-4 0  9999,2 53029  53.2169 335.7666 0001617  54.4043 305.7099 15.08831119 24835,6917.908,95.438,540.891,538.654,0.0
53029.0,STARLINK-4143,PAYLOAD,2022-12-15 08:48:06,15.08847951,0.0001588,53.2162,332.7927,53.9344,306.1795,0.00020735,3.014e-05,0.0,0 STARLINK-4143,1 53029U 22076AV  22349.36673915  .00003014  00000-0  20735-3 0  9994,2 53029  53.2162 332.7927 0001588  53.9344 306.1795 15.08847951 25403,6917.856,95.437,540.82,538.623,0.0
53029.0,STARLINK-4143,PAYLOAD,2022-12-15 10:23:29,15.08840256,0.0001855,53.2163,332.4962,49.5136,310.6018,9.7016e-05,1.256e-05,0.0,0 STARLINK-4143,1 53029U 22076AV  22349.43298420  .00001256  00000-0  97016-4 0  9999,2 53029  53.2163 332.4962 0001855  49.5136 310.6018 15.08840256 24944,6917.88,95.438,541.028,538.461,0.0
53029.0,STARLINK-4143,PAYLOAD,2022-12-16 08:38:53,15.08852739,0.0001664,53.2162,328.3326,57.7187,302.3967,0.00037535,5.693e-05,0.0,0 STARLINK-4143,1 53029U 22076AV  22350.36033797  .00005693  00000-0  37535-3 0  9995,2 53029  53.2162 328.3326 0001664  57.7187 302.3967 15.08852739 25082,6917.840999999999,95.437,540.8580000000002,538.555,0.0
53029.0,STARLINK-4143,PAYLOAD,2022-12-17 02:08:07,15.08842058,0.0001565999999999,53.2163,325.0603,69.4793,290.6367,5.2661e-05,5.5e-06,0.0,0 STARLINK-4143,1 53029U 22076AV  22351.08897865  .00000550  00000-0  52661-4 0  9994,2 53029  53.2163 325.0603 0001566  69.4793 290.6367 15.08842058 25669,6917.874,95.437,540.822,538.656,0.0
53029.0,STARLINK-4143,PAYLOAD,2022-12-17 08:29:40,15.08841854,0.0001578,53.2173,323.8724,55.5457,304.5684,2.8847e-05,1.71e-06,0.0,0 STARLINK-4143,1 53029U 22076AV  22351.35393953  .00000171  00000-0  28847-4 0  9991,2 53029  53.2173 323.8724 0001578  55.5457 304.5684 15.08841854 25239,6917.875,95.437,540.831,538.648,0.0
53029.0,STARLINK-4143,PAYLOAD,2022-12-17 14:51:13,15.08834195,0.0001514,53.2166,322.6823,51.6443,308.4685,-6.4005e-05,-1.306e-05,0.0,0 STARLINK-4143,1 53029U 22076AV  22351.61890691 -.00001306  00000-0 -64005-4 0  9990,2 53029  53.2166 322.6823 0001514  51.6443 308.4685 15.08834195 25740,6917.898,95.438,540.811,538.716,0.0
53029.0,STARLINK-4143,PAYLOAD,2022-12-18 09:55:51,15.08836633,0.0001698,53.2171,319.1138,56.0458,304.0695,-0.00010558,-1.968e-05,0.0,0 STARLINK-4143,1 53029U 22076AV  22352.41378657 -.00001968  00000-0 -10558-3 0  9999,2 53029  53.2171 319.1138 0001698  56.0458 304.0695 15.08836633 25397,6917.891,95.438,540.93,538.581,0.0
53029.0,STARLINK-4143,PAYLOAD,2022-12-18 14:42:00,15.08836622,0.0001667,53.217,318.2217,58.3323,301.7831,1.0417e-05,-1.22e-06,0.0,0 STARLINK-4143,1 53029U 22076AV  22352.61250505 -.00000122  00000-0  10417-4 0  9997,2 53029  53.2170 318.2217 0001667  58.3323 301.7831 15.08836622 25424,6917.891,95.438,540.909,538.6030000000002,0.0
53029.0,STARLINK-4143,PAYLOAD,2022-12-19 06:35:52,15.08835135,0.0001706999999999,53.2173,315.2487,60.0804,300.0357,5.37e-05,5.67e-06,0.0,0 STARLINK-4143,1 53029U 22076AV  22353.27490964  .00000567  00000-0  53700-4 0  9999,2 53029  53.2173 315.2487 0001707  60.0804 300.0357 15.08835135 25997,6917.895,95.438,540.941,538.5790000000002,0.0
53029.0,STARLINK-4143,PAYLOAD,2022-12-19 20:54:19,15.08852964,0.0001661,53.2169,312.5716,59.2654,300.8502,0.00031063,4.661e-05,0.0,0 STARLINK-4143,1 53029U 22076AV  22353.87105457  .00004661  00000-0  31063-3 0  9991,2 53029  53.2169 312.5716 0001661  59.2654 300.8502 15.08852964 25617,6917.840999999999,95.437,540.855,538.557,0.0
53029.0,STARLINK-4143,PAYLOAD,2022-12-20 04:51:15,15.08858755,0.0001702,53.2159,311.0852,61.1298,298.9865,0.00049482,7.6e-05,0.0,0 STARLINK-4143,1 53029U 22076AV  22354.20225798  .00007600  00000-0  49482-3 0  9990,2 53029  53.2159 311.0852 0001702  61.1298 298.9865 15.08858755 25661,6917.823,95.436,540.865,538.511,0.0
53029.0,STARLINK-4143,PAYLOAD,2022-12-21 01:31:15,15.08845963,0.0001493,53.2156,307.2181,63.6995,296.415,-0.00016691,-2.944e-05,0.0,0 STARLINK-4143,1 53029U 22076AV  22355.06337202 -.00002944  00000-0 -16691-3 0  9993,2 53029  53.2156 307.2181 0001493  63.6995 296.4150 15.08845963 26262,6917.861999999999,95.437,540.76,538.694,0.0
